CCSDS_OMM_VERS = 2.0
CREATION_DATE  = 
ORIGINATOR     = 

OBJECT_NAME    = COSMOS 1933
OBJECT_ID      = 1988-020A
CENTER_NAME    = EARTH
REF_FRAME      = TEME
TIME_SYSTEM    = UTC
MEAN_ELEMENT_THEORY = SGP/SGP4

EPOCH          = 2026-01-13T05:03:54.765792
MEAN_MOTION    = 15.17441480
ECCENTRICITY   = .0005764
INCLINATION    = 82.5149
RA_OF_ASC_NODE = 305.7792
ARG_OF_PERICENTER = 49.3101
MEAN_ANOMALY   = 310.8633

EPHEMERIS_TYPE = 0
CLASSIFICATION_TYPE = U
NORAD_CAT_ID   = 18958
ELEMENT_SET_NO = 999
REV_AT_EPOCH   = 4181
BSTAR          = .21499E-3
MEAN_MOTION_DOT = .4332E-4
MEAN_MOTION_DDOT = 0

CCSDS_OMM_VERS = 2.0
CREATION_DATE  = 
ORIGINATOR     = 

OBJECT_NAME    = SL-3 R/B
OBJECT_ID      = 1988-032B
CENTER_NAME    = EARTH
REF_FRAME      = TEME
TIME_SYSTEM    = UTC
MEAN_ELEMENT_THEORY = SGP/SGP4

EPOCH          = 2026-01-13T14:45:10.619136
MEAN_MOTION    = 15.19129247
ECCENTRICITY   = .00283056
INCLINATION    = 97.5109
RA_OF_ASC_NODE = 357.1285
ARG_OF_PERICENTER = 67.6260
MEAN_ANOMALY   = 292.7970

EPHEMERIS_TYPE = 0
CLASSIFICATION_TYPE = U
NORAD_CAT_ID   = 19046
ELEMENT_SET_NO = 999
REV_AT_EPOCH   = 4374
BSTAR          = .1882443E-3
MEAN_MOTION_DOT = .3924E-4
MEAN_MOTION_DDOT = 0

CCSDS_OMM_VERS = 2.0
CREATION_DATE  = 
ORIGINATOR     = 

OBJECT_NAME    = SL-16 R/B
OBJECT_ID      = 1988-039B
CENTER_NAME    = EARTH
REF_FRAME      = TEME
TIME_SYSTEM    = UTC
MEAN_ELEMENT_THEORY = SGP/SGP4

EPOCH          = 2026-01-13T12:37:28.525440
MEAN_MOTION    = 14.19604861
ECCENTRICITY   = .00197428
INCLINATION    = 71.0133
RA_OF_ASC_NODE = 185.1894
ARG_OF_PERICENTER = 61.7842
MEAN_ANOMALY   = 298.5274

EPHEMERIS_TYPE = 0
CLASSIFICATION_TYPE = U
NORAD_CAT_ID   = 19120
ELEMENT_SET_NO = 999
REV_AT_EPOCH   = 95055
BSTAR          = .53752035E-4
MEAN_MOTION_DOT = .66E-6
MEAN_MOTION_DDOT = 0

CCSDS_OMM_VERS = 2.0
CREATION_DATE  = 
ORIGINATOR     = 

OBJECT_NAME    = COSMOS 1953
OBJECT_ID      = 1988-050A
CENTER_NAME    = EARTH
REF_FRAME      = TEME
TIME_SYSTEM    = UTC
MEAN_ELEMENT_THEORY = SGP/SGP4

EPOCH          = 2026-01-13T13:10:24.902976
MEAN_MOTION    = 15.27368252
ECCENTRICITY   = .00109647
INCLINATION    = 82.5071
RA_OF_ASC_NODE = 213.6526
ARG_OF_PERICENTER = 324.5675
MEAN_ANOMALY   = 35.4835

EPHEMERIS_TYPE = 0
CLASSIFICATION_TYPE = U
NORAD_CAT_ID   = 19210
ELEMENT_SET_NO = 999
REV_AT_EPOCH   = 2936
BSTAR          = .20290974E-3
MEAN_MOTION_DOT = .5477E-4
MEAN_MOTION_DDOT = 0

CCSDS_OMM_VERS = 2.0
CREATION_DATE  = 
ORIGINATOR     = 

OBJECT_NAME    = SL-8 R/B
OBJECT_ID      = 1988-053B
CENTER_NAME    = EARTH
REF_FRAME      = TEME
TIME_SYSTEM    = UTC
MEAN_ELEMENT_THEORY = SGP/SGP4

EPOCH          = 2026-01-13T15:53:24.463680
MEAN_MOTION    = 14.38879785
ECCENTRICITY   = .0019333
INCLINATION    = 74.0453
RA_OF_ASC_NODE = 213.8857
ARG_OF_PERICENTER = 46.2197
MEAN_ANOMALY   = 16.9966

EPHEMERIS_TYPE = 0
CLASSIFICATION_TYPE = U
NORAD_CAT_ID   = 19257
ELEMENT_SET_NO = 999
REV_AT_EPOCH   = 96868
BSTAR          = .43014852E-4
MEAN_MOTION_DOT = .106E-5
MEAN_MOTION_DDOT = 0

CCSDS_OMM_VERS = 2.0
CREATION_DATE  = 
ORIGINATOR     = 

OBJECT_NAME    = COSMOS 1975
OBJECT_ID      = 1988-093A
CENTER_NAME    = EARTH
REF_FRAME      = TEME
TIME_SYSTEM    = UTC
MEAN_ELEMENT_THEORY = SGP/SGP4

EPOCH          = 2026-01-13T12:04:23.154528
MEAN_MOTION    = 15.26996746
ECCENTRICITY   = .00118245
INCLINATION    = 82.5199
RA_OF_ASC_NODE = 173.0180
ARG_OF_PERICENTER = 10.6038
MEAN_ANOMALY   = 349.5447

EPHEMERIS_TYPE = 0
CLASSIFICATION_TYPE = U
NORAD_CAT_ID   = 19573
ELEMENT_SET_NO = 999
REV_AT_EPOCH   = 1098
BSTAR          = .20137968E-3
MEAN_MOTION_DOT = .5377E-4
MEAN_MOTION_DDOT = 0

CCSDS_OMM_VERS = 2.0
CREATION_DATE  = 
ORIGINATOR     = 

OBJECT_NAME    = SL-14 R/B
OBJECT_ID      = 1988-093B
CENTER_NAME    = EARTH
REF_FRAME      = TEME
TIME_SYSTEM    = UTC
MEAN_ELEMENT_THEORY = SGP/SGP4

EPOCH          = 2026-01-13T11:46:02.094528
MEAN_MOTION    = 14.85590646
ECCENTRICITY   = .00198015
INCLINATION    = 82.5312
RA_OF_ASC_NODE = 93.8722
ARG_OF_PERICENTER = 217.4259
MEAN_ANOMALY   = 153.1454

EPHEMERIS_TYPE = 0
CLASSIFICATION_TYPE = U
NORAD_CAT_ID   = 19574
ELEMENT_SET_NO = 999
REV_AT_EPOCH   = 99284
BSTAR          = .45995038E-4
MEAN_MOTION_DOT = .423E-5
MEAN_MOTION_DDOT = 0

CCSDS_OMM_VERS = 2.0
CREATION_DATE  = 
ORIGINATOR     = 

OBJECT_NAME    = SL-16 R/B
OBJECT_ID      = 1988-102B
CENTER_NAME    = EARTH
REF_FRAME      = TEME
TIME_SYSTEM    = UTC
MEAN_ELEMENT_THEORY = SGP/SGP4

EPOCH          = 2026-01-13T10:57:09.612864
MEAN_MOTION    = 14.16142908
ECCENTRICITY   = .00119971
INCLINATION    = 70.9991
RA_OF_ASC_NODE = 267.7106
ARG_OF_PERICENTER = 96.1444
MEAN_ANOMALY   = 264.1046

EPHEMERIS_TYPE = 0
CLASSIFICATION_TYPE = U
NORAD_CAT_ID   = 19650
ELEMENT_SET_NO = 999
REV_AT_EPOCH   = 91907
BSTAR          = .14447208E-3
MEAN_MOTION_DOT = .238E-5
MEAN_MOTION_DDOT = 0

CCSDS_OMM_VERS = 2.0
CREATION_DATE  = 
ORIGINATOR     = 

OBJECT_NAME    = INTERCOSMOS 24
OBJECT_ID      = 1989-080A
CENTER_NAME    = EARTH
REF_FRAME      = TEME
TIME_SYSTEM    = UTC
MEAN_ELEMENT_THEORY = SGP/SGP4

EPOCH          = 2026-01-13T14:23:33.683424
MEAN_MOTION    = 12.59486023
ECCENTRICITY   = .11889876
INCLINATION    = 82.6077
RA_OF_ASC_NODE = 140.2429
ARG_OF_PERICENTER = 60.6510
MEAN_ANOMALY   = 310.8053

EPHEMERIS_TYPE = 0
CLASSIFICATION_TYPE = U
NORAD_CAT_ID   = 20261
ELEMENT_SET_NO = 999
REV_AT_EPOCH   = 65986
BSTAR          = .95847511E-4
MEAN_MOTION_DOT = .355E-5
MEAN_MOTION_DDOT = 0

CCSDS_OMM_VERS = 2.0
CREATION_DATE  = 
ORIGINATOR     = 

OBJECT_NAME    = SL-14 R/B
OBJECT_ID      = 1989-080C
CENTER_NAME    = EARTH
REF_FRAME      = TEME
TIME_SYSTEM    = UTC
MEAN_ELEMENT_THEORY = SGP/SGP4

EPOCH          = 2026-01-13T12:08:59.653536
MEAN_MOTION    = 12.50438053
ECCENTRICITY   = .12298025
INCLINATION    = 82.5911
RA_OF_ASC_NODE = 208.6219
ARG_OF_PERICENTER = 310.9786
MEAN_ANOMALY   = 39.1036

EPHEMERIS_TYPE = 0
CLASSIFICATION_TYPE = U
NORAD_CAT_ID   = 20262
ELEMENT_SET_NO = 999
REV_AT_EPOCH   = 65325
BSTAR          = .69202105E-4
MEAN_MOTION_DOT = .231E-5
MEAN_MOTION_DDOT = 0

CCSDS_OMM_VERS = 2.0
CREATION_DATE  = 
ORIGINATOR     = 

OBJECT_NAME    = DELTA 1 R/B
OBJECT_ID      = 1989-089B
CENTER_NAME    = EARTH
REF_FRAME      = TEME
TIME_SYSTEM    = UTC
MEAN_ELEMENT_THEORY = SGP/SGP4

EPOCH          = 2026-01-13T13:50:48.180192
MEAN_MOTION    = 14.50604787
ECCENTRICITY   = .00677415
INCLINATION    = 97.0736
RA_OF_ASC_NODE = 229.7669
ARG_OF_PERICENTER = 297.4993
MEAN_ANOMALY   = 61.9331

EPHEMERIS_TYPE = 0
CLASSIFICATION_TYPE = U
NORAD_CAT_ID   = 20323
ELEMENT_SET_NO = 999
REV_AT_EPOCH   = 88774
BSTAR          = .83061782E-4
MEAN_MOTION_DOT = .299E-5
MEAN_MOTION_DDOT = 0

CCSDS_OMM_VERS = 2.0
CREATION_DATE  = 
ORIGINATOR     = 

OBJECT_NAME    = ARIANE 40 R/B
OBJECT_ID      = 1990-005H
CENTER_NAME    = EARTH
REF_FRAME      = TEME
TIME_SYSTEM    = UTC
MEAN_ELEMENT_THEORY = SGP/SGP4

EPOCH          = 2026-01-13T15:17:06.686880
MEAN_MOTION    = 14.39825332
ECCENTRICITY   = .00102664
INCLINATION    = 98.3196
RA_OF_ASC_NODE = 75.9066
ARG_OF_PERICENTER = 17.3209
MEAN_ANOMALY   = 342.8328

EPHEMERIS_TYPE = 0
CLASSIFICATION_TYPE = U
NORAD_CAT_ID   = 20443
ELEMENT_SET_NO = 999
REV_AT_EPOCH   = 88488
BSTAR          = .73975846E-4
MEAN_MOTION_DOT = .19E-5
MEAN_MOTION_DDOT = 0

