COSMOS 1933             
1 18958U 88020A   26013.21105053  .00004332  00000+0  21499-3 0  9997
2 18958  82.5149 305.7792 0005764  49.3101 310.8633 15.17441480 41818
SL-3 R/B                
1 19046U 88032B   26013.61470624  .00003924  00000+0  18824-3 0  9996
2 19046  97.5109 357.1285 0028305  67.6260 292.7970 15.19129247 43744
SL-16 R/B               
1 19120U 88039B   26013.52602460  .00000066  00000+0  53752-4 0  9995
2 19120  71.0133 185.1894 0019742  61.7842 298.5274 14.19604861950558
COSMOS 1953             
1 19210U 88050A   26013.54889934  .00005477  00000+0  20291-3 0  9995
2 19210  82.5071 213.6526 0010964 324.5675  35.4835 15.27368252 29364
SL-8 R/B                
1 19257U 88053B   26013.66208870  .00000106  00000+0  43015-4 0  9990
2 19257  74.0453 213.8857 0019333  46.2197  16.9966 14.38879785968685
COSMOS 1975             
1 19573U 88093A   26013.50304577  .00005377  00000+0  20138-3 0  9994
2 19573  82.5199 173.0180 0011824  10.6038 349.5447 15.26996746 10984
SL-14 R/B               
1 19574U 88093B   26013.49030202  .00000423  00000+0  45995-4 0  9990
2 19574  82.5312  93.8722 0019801 217.4259 153.1454 14.85590646992842
SL-16 R/B               
1 19650U 88102B   26013.45636126  .00000238  00000+0  14447-3 0  9990
2 19650  70.9991 267.7106 0011997  96.1444 264.1046 14.16142908919077
INTERCOSMOS 24          
1 20261U 89080A   26013.59969541  .00000355  00000+0  95848-4 0  9996
2 20261  82.6077 140.2429 1188987  60.6510 310.8053 12.59486023659869
SL-14 R/B               
1 20262U 89080C   26013.50624599  .00000231  00000+0  69202-4 0  9997
2 20262  82.5911 208.6219 1229802 310.9786  39.1036 12.50438053653250
DELTA 1 R/B             
1 20323U 89089B   26013.57694653  .00000299  00000+0  83062-4 0  9993
2 20323  97.0736 229.7669 0067741 297.4993  61.9331 14.50604787887742
ARIANE 40 R/B           
1 20443U 90005H   26013.63688295  .00000190  00000+0  73976-4 0  9991
2 20443  98.3196  75.9066 0010266  17.3209 342.8328 14.39825332884887
